YAOGAN-36 04C           
1 54750U 22171E   26068.78871400  .00016196  00000+0  54592-3 0  9991
2 54750  34.9797  96.6578 0006685 275.3761  84.6192 15.29852307180246
STARLINK-34897          
1 65212U 25176Q   26068.53400495  .00029688  00000+0  10109-2 0  9994
2 65212  53.1581 153.6670 0001153  62.1896 297.9221 15.30186523 33092
